COSMO-SKYMED 1          
1 31598U 07023A   26189.98997964  .00001476  00000+0  13285-3 0  9994
2 31598  97.8845  22.0302 0001046  92.5630 267.5711 14.97200908 33054
COMS 1                  
1 36744U 10032A   26189.35480981 -.00000198  00000+0  00000+0 0  9991
2 36744   4.8563  75.1008 0011359  14.7290 313.4314  0.99169315 51294
CBERS 4                 
1 40336U 14079A   26189.99327956 -.00000148  00000+0 -36794-4 0  9990
2 40336  98.3519 246.1397 0001045  50.2160 309.9118 14.35514373607087
CAS500-1                
1 47932U 21022A   26189.98259391  .00004003  00000+0  18822-3 0  9994
2 47932  97.3874  84.7921 0004508 190.1129 170.0016 15.20136811294071
CO3D 3                  
1 64900U 25156B   26189.90916009  .00002829  00000+0  13376-3 0  9991
2 64900  97.4333 268.2898 0001845 100.3006 259.8437 15.20203455 52834
CO3D 4                  
1 64901U 25156C   26189.90930961  .00001144  00000+0  55960-4 0  9990
2 64901  97.4334 268.2897 0001124 163.8871 196.2400 15.20195174 52831
CO3D 2                  
1 64902U 25156D   26189.94177808  .00002651  00000+0  12551-3 0  9990
2 64902  97.4332 268.2209 0001346  89.9661 270.1728 15.20212660 52833
CO3D 1                  
1 64903U 25156E   26189.94193247  .00002900  00000+0  13706-3 0  9996
2 64903  97.4333 268.2211 0001271  97.2632 262.8748 15.20192100 52831
CAS500-3                
1 66655U 25274F   26189.79608866  .00000933  00000+0  10657-3 0  9990
2 66655  97.7440 117.3557 0006665  55.1765 305.0078 14.88374289 33364
CAS500-2                
1 69013U 26100AK  26189.66895771  .00004456  00000+0  20476-3 0  9993
2 69013  97.3876  87.1194 0008243 319.2851  40.7768 15.20852251 10078
